{"version": 0.6, "generator": "Overpass API 0.7.61.5 4133829e", "osm3s": {"timestamp_osm_base": "2024-02-21T04:58:24Z", "copyright": "The data included in this document is from www.openstreetmap.org. The data is made available under ODbL."}, "elements": [{"type": "node", "id": 836910745, "lat": 33.8748487, "lon": -117.8900255, "tags": {"amenity": "cafe", "brand": "Starbucks", "brand:wikidata": "Q37158", "check_date": "2023-11-22", "contact:website": "https://www.starbucks.com/store-locator/store/12154/state-college-chapman-505-n-state-college-blvd-suite-a-fullerton-ca-9283", "cuisine": "coffee_shop", "internet_access": "yes", "name": "Starbucks", "official_name": "Starbucks Coffee", "takeaway": "yes"}}, {"type": "node", "id": 1233397831, "lat": 33.8659745, "lon": -117.9596636, "tags": {"amenity": "cafe"}}, {"type": "node", "id": 1234350330, "lat": 33.9169455, "lon": -117.932305, "tags": {"amenity": "cafe"}}, {"type": "node", "id": 1235707836, "lat": 33.8594643, "lon": -117.959585, "tags": {"amenity": "cafe", "cuisine": "coffee_shop", "name": "Intentional Coffee"}}, {"type": "node", "id": 1401726015, "lat": 33.8759195, "lon": -117.9184156, "tags": {"amenity": "cafe", "cuisine": "coffee_shop", "name": "The Stinger Cafe"}}, {"type": "node", "id": 1494035435, "lat": 33.8718124, "lon": -117.9422224, "tags": {"amenity": "cafe"}}, {"type": "node", "id": 1970721094, "lat": 33.8620682, "lon": -117.9248297}, {"type": "node", "id": 1970721098, "lat": 33.8620698, "lon": -117.9245823}, {"type": "node", "id": 1970721128, "lat": 33.8621859, "lon": -117.9248308}, {"type": "node", "id": 1970721129, "lat": 33.8621875, "lon": -117.9245834}, {"type": "node", "id": 1971137710, "lat": 33.8750391, "lon": -117.8890248}, {"type": "node", "id": 1971137712, "lat": 33.8750391, "lon": -117.8892986}, {"type": "node", "id": 1971137713, "lat": 33.8751237, "lon": -117.8890248}, {"type": "node", "id": 1971137714, "lat": 33.8751237, "lon": -117.8892986}, {"type": "node", "id": 2265588035, "lat": 33.899067, "lon": -117.9120613, "tags": {"amenity": "cafe"}}, {"type": "node", "id": 2509989408, "lat": 33.8688327, "lon": -117.9222757, "tags": {"addr:city": "Fullerton", "addr:country": "US", "addr:state": "CA", "amenity": "cafe", "name": "Santa Fe Express Cafe"}}, {"type": "node", "id": 2639247540, "lat": 33.8742546, "lon": -117.9065236, "tags": {"amenity": "cafe", "name": "Donut Star"}}, {"type": "node", "id": 2639921789, "lat": 33.8747911, "lon": -117.8900264, "tags": {"addr:city": "Fullerton", "addr:housenumber": "505", "addr:postcode": "92831", "addr:state": "CA", "addr:street": "North State College Boulevard", "amenity": "cafe", "check_date": "2023-11-22", "drink:tea": "yes", "name": "7 Leaves Cafe", "takeaway": "yes", "wheelchair": "yes"}}, {"type": "node", "id": 2679539382, "lat": 33.8814873, "lon": -117.8852161, "tags": {"amenity": "cafe", "brand": "Starbucks", "brand:wikidata": "Q37158", "contact:website": "https://www.starbucks.com/store-locator/store/1005597/cal-state-fullerton-pollak-lib-800-n-state-college-blvd-fullerton-ca-928313547-us", "cuisine": "coffee_shop", "name": "Starbucks", "official_name": "Starbucks Coffee", "takeaway": "yes"}}, {"type": "node", "id": 2679539383, "lat": 33.8788419, "lon": -117.8831641, "tags": {"amenity": "cafe", "brand": "Starbucks", "brand:wikidata": "Q37158", "contact:website": "https://www.starbucks.com/store-locator/store/18625/cal-state-fullerton-school-bus-800-n-state-college-blvd-fullerton-ca-928313547-us", "cuisine": "coffee_shop", "name": "Starbucks", "official_name": "Starbucks Coffee", "takeaway": "yes"}}, {"type": "node", "id": 2685928425, "lat": 33.8777335, "lon": -117.8817537, "tags": {"amenity": "cafe", "cuisine": "coffee_shop", "name": "Jay's Coffee Waffles & More"}}, {"type": "node", "id": 2983913607, "lat": 33.89392, "lon": -117.9450713}, {"type": "node", "id": 2983913608, "lat": 33.8937397, "lon": -117.9450552}, {"type": "node", "id": 2983913609, "lat": 33.8937508, "lon": -117.9448567}, {"type": "node", "id": 2983913610, "lat": 33.8938154, "lon": -117.9448621}, {"type": "node", "id": 2983913611, "lat": 33.8938109, "lon": -117.9449399}, {"type": "node", "id": 2983913612, "lat": 33.8939267, "lon": -117.9449479}, {"type": "node", "id": 2983915973, "lat": 33.8932053, "lon": -117.9453663, "tags": {"amenity": "cafe", "name": "Coffee Code"}}, {"type": "node", "id": 4005964869, "lat": 33.883031, "lon": -117.8828186}, {"type": "node", "id": 4005964870, "lat": 33.8830371, "lon": -117.8828478}, {"type": "node", "id": 4005964871, "lat": 33.8830661, "lon": -117.8828653}, {"type": "node", "id": 4005964872, "lat": 33.8830964, "lon": -117.8828638}, {"type": "node", "id": 4005964874, "lat": 33.8831164, "lon": -117.8828409}, {"type": "node", "id": 4005964875, "lat": 33.88325, "lon": -117.8824747}, {"type": "node", "id": 4005964876, "lat": 33.8832537, "lon": -117.8824499}, {"type": "node", "id": 4005964877, "lat": 33.8832476, "lon": -117.8824339}, {"type": "node", "id": 4005964878, "lat": 33.8832343, "lon": -117.8824237}, {"type": "node", "id": 4005964879, "lat": 33.8833045, "lon": -117.8822138}, {"type": "node", "id": 4005964880, "lat": 33.8833867, "lon": -117.8821905}, {"type": "node", "id": 4005964881, "lat": 33.8834182, "lon": -117.8821672}, {"type": "node", "id": 4005964882, "lat": 33.8834279, "lon": -117.8821263}, {"type": "node", "id": 4005964883, "lat": 33.8834182, "lon": -117.8820826}, {"type": "node", "id": 4005964884, "lat": 33.8834025, "lon": -117.8820491}, {"type": "node", "id": 4005964887, "lat": 33.883048, "lon": -117.8819252}, {"type": "node", "id": 4005964888, "lat": 33.8830468, "lon": -117.8819587}, {"type": "node", "id": 4005965089, "lat": 33.8830407, "lon": -117.882157}, {"type": "node", "id": 4005965090, "lat": 33.8830455, "lon": -117.8821744}, {"type": "node", "id": 4005965091, "lat": 33.8830564, "lon": -117.8821803}, {"type": "node", "id": 4005965092, "lat": 33.8830528, "lon": -117.8822881}, {"type": "node", "id": 4005965093, "lat": 33.8830334, "lon": -117.8822969}, {"type": "node", "id": 4005965094, "lat": 33.8830286, "lon": -117.882326}, {"type": "node", "id": 4005965095, "lat": 33.8830347, "lon": -117.8823493}, {"type": "node", "id": 4005965096, "lat": 33.8830468, "lon": -117.8823639}, {"type": "node", "id": 4037645825, "lat": 33.8736801, "lon": -117.924144, "tags": {"amenity": "cafe", "brand": "Starbucks", "brand:wikidata": "Q37158", "cuisine": "coffee_shop", "name": "Starbucks", "official_name": "Starbucks Coffee", "takeaway": "yes"}}, {"type": "node", "id": 4091993604, "lat": 33.8715158, "lon": -117.9241332, "tags": {"amenity": "cafe", "cuisine": "coffee_shop", "internet_access": "wlan", "name": "The Night Owl", "smoking": "outside", "website": "http://www.thenightowlfullerton.com/"}}, {"type": "node", "id": 4091993606, "lat": 33.8741068, "lon": -117.9238354, "tags": {"amenity": "cafe", "cuisine": "coffee_shop", "name": "Dripp", "website": "https://www.dripp.com/"}}, {"type": "node", "id": 4091993607, "lat": 33.8717513, "lon": -117.9263648, "tags": {"amenity": "cafe", "cuisine": "coffee_shop", "internet_access": "wlan", "name": "Max Bloom's Cafe Noir", "website": "http://maxbloomscafenoir.com/"}}, {"type": "node", "id": 4095854932, "lat": 33.8781235, "lon": -117.9246204, "tags": {"addr:city": "Fullerton", "addr:housenumber": "817", "addr:postcode": "92832", "addr:state": "CA", "addr:street": "North Harbor Boulevard", "amenity": "cafe", "cuisine": "coffee_shop", "internet_access": "wlan", "name": "McClain's Coffeehouse", "smoking": "outside", "website": "http://mcclainscoffeehouse.com/"}}, {"type": "node", "id": 4299805080, "lat": 33.917649, "lon": -117.9309732}, {"type": "node", "id": 4299805081, "lat": 33.9176316, "lon": -117.9308701}, {"type": "node", "id": 4299805085, "lat": 33.9176444, "lon": -117.9308701}, {"type": "node", "id": 4299805086, "lat": 33.9177079, "lon": -117.9309754}, {"type": "node", "id": 4299805087, "lat": 33.9176318, "lon": -117.930823}, {"type": "node", "id": 4299805489, "lat": 33.9177465, "lon": -117.9308911}, {"type": "node", "id": 4299805490, "lat": 33.9177291, "lon": -117.9307659}, {"type": "node", "id": 4299805492, "lat": 33.9177098, "lon": -117.9309532}, {"type": "node", "id": 4299805493, "lat": 33.91773, "lon": -117.9308883}, {"type": "node", "id": 4299805494, "lat": 33.9176546, "lon": -117.9308202}, {"type": "node", "id": 4299805499, "lat": 33.9176527, "lon": -117.9307681}, {"type": "node", "id": 4299805503, "lat": 33.9177449, "lon": -117.9309524}, {"type": "node", "id": 4538972888, "lat": 33.8830607, "lon": -117.881916}, {"type": "node", "id": 4538974389, "lat": 33.8833855, "lon": -117.8820331}, {"type": "node", "id": 5874357738, "lat": 33.8727734, "lon": -117.9247445, "tags": {"addr:city": "Fullerton", "addr:housenumber": "305", "addr:postcode": "92832", "addr:state": "CA", "addr:street": "North Harbor Boulevard", "addr:unit": "117", "amenity": "cafe", "contact:facebook": "https://www.facebook.com/TheBrownstoneCafe/", "contact:yelp": "https://www.yelp.com/biz/the-brownstone-cafe-fullerton", "cuisine": "breakfast;italian;pizza", "name": "The Brownstone Cafe", "opening_hours": "Mo-Su 07:00-15:30", "outdoor_seating": "yes", "phone": "+1-714-526-9123", "smoking": "no", "start_date": "1997-12-31", "website": "https://brownstonefood.com/"}}, {"type": "node", "id": 5982049588, "lat": 33.8602673, "lon": -117.942165, "tags": {"addr:housenumber": "1201", "addr:postcode": "92832", "addr:street": "South Euclid Street", "amenity": "cafe", "brand": "Starbucks", "brand:wikidata": "Q37158", "cuisine": "coffee_shop", "internet_access": "wlan", "name": "Starbucks", "official_name": "Starbucks Coffee", "opening_hours": "Mo-Fr 04:00-23:00; Sa-Su 04:30-23:00", "phone": "(714) 578-5996", "takeaway": "yes", "website": "https://www.starbucks.com/store-locator/store/1005856/euclid-orangethorpe-1201-south-euclid-street-fullerton-ca-92832-us"}}, {"type": "node", "id": 7143463607, "lat": 33.8837634, "lon": -117.9246826}, {"type": "node", "id": 7143463608, "lat": 33.8835756, "lon": -117.9247349}, {"type": "node", "id": 7143463609, "lat": 33.8836025, "lon": -117.9248292}, {"type": "node", "id": 7143463610, "lat": 33.8837853, "lon": -117.9248227}, {"type": "node", "id": 7143463611, "lat": 33.8836505, "lon": -117.9248629}, {"type": "node", "id": 7143463612, "lat": 33.8835811, "lon": -117.9247688}, {"type": "node", "id": 7143463613, "lat": 33.8835885, "lon": -117.9247669}, {"type": "node", "id": 7143463614, "lat": 33.8836411, "lon": -117.9248188}, {"type": "node", "id": 9328044915, "lat": 33.8725624, "lon": -117.9247526, "tags": {"amenity": "cafe", "name": "Green Bliss Cafe"}}, {"type": "node", "id": 9328064617, "lat": 33.8722445, "lon": -117.9255441, "tags": {"amenity": "cafe", "name": "Pilgrim's Coffee Shop"}}, {"type": "node", "id": 9328064620, "lat": 33.8722658, "lon": -117.9246791, "tags": {"amenity": "cafe", "name": "The Smoking Tiger Coffee and Bread", "opening_hours": "Mo-Su 07:00-19:00", "outdoor_seating": "yes"}}, {"type": "node", "id": 9328064625, "lat": 33.8715316, "lon": -117.9248053, "tags": {"amenity": "cafe", "name": "Made Coffee"}}, {"type": "node", "id": 9409019684, "lat": 33.8707809, "lon": -117.9301023, "tags": {"amenity": "cafe", "name": "Library Cafe"}}, {"type": "node", "id": 9409019685, "lat": 33.8704891, "lon": -117.932277, "tags": {"amenity": "cafe", "name": "Veronese Gallery and Cafe"}}, {"type": "node", "id": 9409019686, "lat": 33.8704272, "lon": -117.9342622, "tags": {"amenity": "cafe", "name": "525 Coffee Co"}}, {"type": "node", "id": 9762002201, "lat": 33.894247, "lon": -117.9305424, "tags": {"amenity": "cafe", "cuisine": "bubble_tea", "name": "The Boba Place", "outdoor_seating": "yes", "wheelchair": "yes"}}, {"type": "node", "id": 9762057728, "lat": 33.894093, "lon": -117.9304796, "tags": {"amenity": "cafe", "cuisine": "american;coffee_shop", "food": "yes", "indoor_seating": "yes", "name": "Eggspresso", "outdoor_seating": "yes"}}, {"type": "node", "id": 10932243765, "lat": 33.8584183, "lon": -117.9216244, "tags": {"addr:housenumber": "205", "addr:street": "Orangefair Avenue", "amenity": "cafe", "brand": "The Coffee Bean & Tea Leaf", "brand:wikidata": "Q1141384", "cuisine": "coffee_shop", "indoor_seating": "yes", "name": "The Coffee Bean & Tea Leaf", "opening_hours": "Mo-Fr 05:30-21:30; Sa-Su 06:00-21:30", "takeaway": "yes", "toilets": "yes", "toilets:access": "customers", "wheelchair": "yes"}}, {"type": "node", "id": 10932457643, "lat": 33.8597991, "lon": -117.9212036, "tags": {"amenity": "cafe", "cuisine": "bubble_tea"}}, {"type": "node", "id": 11342332014, "lat": 33.8762771, "lon": -117.8795119, "tags": {"amenity": "cafe", "cuisine": "bubble_tea"}}, {"type": "node", "id": 11369627398, "lat": 33.8755283, "lon": -117.8882608, "tags": {"amenity": "cafe", "brand": "Sharetea", "brand:wikidata": "Q64827032", "check_date": "2023-11-22", "cuisine": "bubble_tea", "name": "Sharetea", "name:en": "Sharetea", "name:zh": "\u6b47\u8173\u4ead", "takeaway": "yes"}}, {"type": "node", "id": 11410006237, "lat": 33.8609253, "lon": -117.9247924}, {"type": "node", "id": 11410006238, "lat": 33.8609259, "lon": -117.9246887}, {"type": "node", "id": 11410006239, "lat": 33.8609125, "lon": -117.9246886}, {"type": "node", "id": 11410006240, "lat": 33.8609132, "lon": -117.9245731}, {"type": "node", "id": 11410006241, "lat": 33.8608828, "lon": -117.9245729}, {"type": "node", "id": 11410006242, "lat": 33.8608829, "lon": -117.9245535}, {"type": "node", "id": 11410006243, "lat": 33.8608407, "lon": -117.9245531}, {"type": "node", "id": 11410006244, "lat": 33.8607887, "lon": -117.9245732}, {"type": "node", "id": 11410006245, "lat": 33.8608406, "lon": -117.9245736}, {"type": "node", "id": 11410006246, "lat": 33.8607874, "lon": -117.9247912}, {"type": "node", "id": 11612505151, "lat": 33.8587351, "lon": -117.9248864, "tags": {"amenity": "cafe", "cuisine": "bubble_tea", "name": "Kawaii Boba"}}, {"type": "way", "id": 186386940, "nodes": [1970721128, 1970721129, 1970721098, 1970721094, 1970721128], "tags": {"amenity": "cafe", "building": "yes"}}, {"type": "way", "id": 186421969, "nodes": [1971137714, 1971137713, 1971137710, 1971137712, 1971137714], "tags": {"addr:city": "Fullerton", "addr:housenumber": "520", "addr:postcode": "92831", "addr:state": "CA", "addr:street": "North State College Boulevard", "alt_name": "Philz Coffee", "amenity": "cafe", "brand": "Philz Coffee", "brand:wikidata": "Q18156812", "building": "yes", "check_date": "2023-11-22", "cuisine": "coffee_shop", "drive_through": "yes", "internet_access": "wlan", "internet_access:fee": "no", "name": "Philz Coffee", "outdoor_seating": "no", "takeaway": "yes", "website": "https://www.philzcoffee.com/"}}, {"type": "way", "id": 294772168, "nodes": [2983913607, 2983913608, 2983913609, 2983913610, 2983913611, 2983913612, 2983913607], "tags": {"addr:city": "Fullerton", "addr:housenumber": "2001", "addr:postcode": "92835", "addr:state": "CA", "addr:street": "North Euclid Street", "amenity": "cafe", "brand": "Starbucks", "brand:wikidata": "Q37158", "building": "yes", "cuisine": "coffee_shop", "name": "Starbucks", "official_name": "Starbucks Coffee", "opening_hours": "Mo-Su 05:00-22:00", "outdoor_seating": "yes", "takeaway": "yes", "website": "https://www.starbucks.com/store-locator/store/1039955/euclid-rosecrans-2001-n-euclid-st-fullerton-ca-928353342-us"}}, {"type": "way", "id": 397809396, "nodes": [4005964869, 4005964870, 4005964871, 4005964872, 4005964874, 4005964875, 4005964876, 4005964877, 4005964878, 4005964879, 4005964880, 4005964881, 4005964882, 4005964883, 4005964884, 4538974389, 4538972888, 4005964887, 4005964888, 4005965089, 4005965090, 4005965091, 4005965092, 4005965093, 4005965094, 4005965095, 4005965096, 4005964869], "tags": {"amenity": "cafe", "building": "yes", "name": "The Gastronome"}}, {"type": "way", "id": 430711864, "nodes": [4299805503, 4299805489, 4299805493, 4299805490, 4299805499, 4299805494, 4299805087, 4299805081, 4299805085, 4299805080, 4299805086, 4299805492, 4299805503], "tags": {"amenity": "cafe", "brand": "Starbucks", "brand:wikidata": "Q37158", "building": "yes", "contact:website": "https://www.starbucks.com/store-locator/store/12503/imperial-harbor-147-e-imperial-highway-fullerton-ca-928351018-us", "cuisine": "coffee_shop", "name": "Starbucks", "official_name": "Starbucks Coffee", "takeaway": "yes"}}, {"type": "way", "id": 764648515, "nodes": [7143463612, 7143463613, 7143463609, 7143463614, 7143463611, 7143463610, 7143463607, 7143463608, 7143463612], "tags": {"amenity": "cafe", "brand": "Starbucks", "brand:wikidata": "Q37158", "building": "yes", "contact:website": "https://www.starbucks.com/store-locator/store/1018157/harbor-brea-fullerton-1390-n-harbor-blvd-fullerton-ca-928354101-us", "cuisine": "coffee_shop", "name": "Starbucks", "official_name": "Starbucks Coffee", "takeaway": "yes"}}, {"type": "way", "id": 1230362828, "nodes": [11410006237, 11410006238, 11410006239, 11410006240, 11410006241, 11410006242, 11410006243, 11410006245, 11410006244, 11410006246, 11410006237], "tags": {"amenity": "cafe", "brand": "Starbucks", "brand:wikidata": "Q37158", "building": "retail", "building:levels": "1", "cuisine": "coffee_shop", "drive_through": "yes", "name": "Starbucks", "official_name": "Starbucks Coffee", "takeaway": "yes"}}]}